[
  {
    "ORDINAL": "1",
    "COMMENT": "GENERATED VIA SPACETRACK.ORG API",
    "ORIGINATOR": "18 SPCS",
    "NORAD_CAT_ID": "521",
    "OBJECT_NAME": "SPUTNIK 25",
    "OBJECT_TYPE": "PAYLOAD",
    "CLASSIFICATION_TYPE": "U",
    "INTLDES": "63001A",
    "EPOCH": "1963-01-04 18:56:06",
    "EPOCH_MICROSECONDS": "303839",
    "MEAN_MOTION": "16.45116415",
    "ECCENTRICITY": "0",
    "INCLINATION": "64.6344",
    "RA_OF_ASC_NODE": "269.954",
    "ARG_OF_PERICENTER": "21.8112",
    "MEAN_ANOMALY": "338.1901",
    "EPHEMERIS_TYPE": "0",
    "ELEMENT_SET_NO": "999",
    "REV_AT_EPOCH": "7",
    "BSTAR": "0",
    "MEAN_MOTION_DOT": "0.10773579",
    "MEAN_MOTION_DDOT": "0",
    "FILE": "33909",
    "TLE_LINE0": "0 SPUTNIK 25",
    "TLE_LINE1": "1 00521U 63001  A 63004.78896185  .10773579 +00000-0 +00000-0 0  9992",
    "TLE_LINE2": "2 00521 064.6344 269.9540 0000000 021.8112 338.1901 16.45116415000073",
    "OBJECT_ID": "1963-001A",
    "OBJECT_NUMBER": "521",
    "SEMIMAJOR_AXIS": "6530.369",
    "PERIOD": "87.532",
    "APOGEE": "152.234",
    "PERIGEE": "152.234",
    "DECAYED": "1"
  },
  {
    "ORDINAL": "1",
    "COMMENT": "GENERATED VIA SPACETRACK.ORG API",
    "ORIGINATOR": "18 SPCS",
    "NORAD_CAT_ID": "522",
    "OBJECT_NAME": "SPUTNIK 25 DEB",
    "OBJECT_TYPE": "DEBRIS",
    "CLASSIFICATION_TYPE": "U",
    "INTLDES": "63001B",
    "EPOCH": "1963-01-09 02:01:47",
    "EPOCH_MICROSECONDS": "480447",
    "MEAN_MOTION": "16.36765978",
    "ECCENTRICITY": "0.0000315",
    "INCLINATION": "64.7474",
    "RA_OF_ASC_NODE": "253.0852",
    "ARG_OF_PERICENTER": "22.1003",
    "MEAN_ANOMALY": "337.8996",
    "EPHEMERIS_TYPE": "0",
    "ELEMENT_SET_NO": "999",
    "REV_AT_EPOCH": "77",
    "BSTAR": "0",
    "MEAN_MOTION_DOT": "0.01348101",
    "MEAN_MOTION_DDOT": "0",
    "FILE": "33909",
    "TLE_LINE0": "0 SPUTNIK 25 DEB",
    "TLE_LINE1": "1 00522U 63001  B 63009.08457732  .01348101 +00000-0 +00000-0 0  9991",
    "TLE_LINE2": "2 00522 064.7474 253.0852 0000315 022.1003 337.8996 16.36765978000772",
    "OBJECT_ID": "1963-001B",
    "OBJECT_NUMBER": "522",
    "SEMIMAJOR_AXIS": "6552.561",
    "PERIOD": "87.978",
    "APOGEE": "174.632",
    "PERIGEE": "174.219",
    "DECAYED": "1"
  },
  {
    "ORDINAL": "1",
    "COMMENT": "GENERATED VIA SPACETRACK.ORG API",
    "ORIGINATOR": "18 SPCS",
    "NORAD_CAT_ID": "523",
    "OBJECT_NAME": "SCOUT X-3 DEB (YO)",
    "OBJECT_TYPE": "DEBRIS",
    "CLASSIFICATION_TYPE": "U",
    "INTLDES": "62071D",
    "EPOCH": "1980-11-28 02:58:45",
    "EPOCH_MICROSECONDS": "307200",
    "MEAN_MOTION": "15.93161822",
    "ECCENTRICITY": "0.0012769",
    "INCLINATION": "90.417",
    "RA_OF_ASC_NODE": "200.6518",
    "ARG_OF_PERICENTER": "87.6552",
    "MEAN_ANOMALY": "272.6328",
    "EPHEMERIS_TYPE": "0",
    "ELEMENT_SET_NO": "999",
    "REV_AT_EPOCH": "95148",
    "BSTAR": "0.011328",
    "MEAN_MOTION_DOT": "0.07807957",
    "MEAN_MOTION_DDOT": "0",
    "FILE": "34111",
    "TLE_LINE0": "0 SCOUT X-3 DEB (YO)",
    "TLE_LINE1": "1 00523U 62071  D 80333.12413550  .07807957 +00000-0 +11328-1 0  9993",
    "TLE_LINE2": "2 00523 090.4170 200.6518 0012769 087.6552 272.6328 15.93161822951488",
    "OBJECT_ID": "1962-071D",
    "OBJECT_NUMBER": "523",
    "SEMIMAJOR_AXIS": "6671.582",
    "PERIOD": "90.386",
    "APOGEE": "301.966",
    "PERIGEE": "284.929",
    "DECAYED": "1"
  },
  {
    "ORDINAL": "1",
    "COMMENT": "GENERATED VIA SPACETRACK.ORG API",
    "ORIGINATOR": "18 SPCS",
    "NORAD_CAT_ID": "524",
    "OBJECT_NAME": "SPUTNIK 25 DEB",
    "OBJECT_TYPE": "DEBRIS",
    "CLASSIFICATION_TYPE": "U",
    "INTLDES": "63001C",
    "EPOCH": "1963-01-10 04:47:21",
    "EPOCH_MICROSECONDS": "544223",
    "MEAN_MOTION": "16.30490715",
    "ECCENTRICITY": "0.0042785",
    "INCLINATION": "64.7261",
    "RA_OF_ASC_NODE": "248.7881",
    "ARG_OF_PERICENTER": "0.6384",
    "MEAN_ANOMALY": "359.3678",
    "EPHEMERIS_TYPE": "0",
    "ELEMENT_SET_NO": "999",
    "REV_AT_EPOCH": "95",
    "BSTAR": "0",
    "MEAN_MOTION_DOT": "0.00638899",
    "MEAN_MOTION_DDOT": "0",
    "FILE": "33909",
    "TLE_LINE0": "0 SPUTNIK 25 DEB",
    "TLE_LINE1": "1 00524U 63001  C 63010.19955491  .00638899 +00000-0 +00000-0 0  9997",
    "TLE_LINE2": "2 00524 064.7261 248.7881 0042785 000.6384 359.3678 16.30490715000955",
    "OBJECT_ID": "1963-001C",
    "OBJECT_NUMBER": "524",
    "SEMIMAJOR_AXIS": "6569.363",
    "PERIOD": "88.317",
    "APOGEE": "219.335",
    "PERIGEE": "163.121",
    "DECAYED": "1"
  },
  {
    "ORDINAL": "1",
    "COMMENT": "GENERATED VIA SPACETRACK.ORG API",
    "ORIGINATOR": "18 SPCS",
    "NORAD_CAT_ID": "525",
    "OBJECT_NAME": "FTV 1157",
    "OBJECT_TYPE": "PAYLOAD",
    "CLASSIFICATION_TYPE": "U",
    "INTLDES": "63002A",
    "EPOCH": "1963-01-21 09:42:42",
    "EPOCH_MICROSECONDS": "45119",
    "MEAN_MOTION": "16.2336972",
    "ECCENTRICITY": "0.0069924",
    "INCLINATION": "82.1863",
    "RA_OF_ASC_NODE": "114.374",
    "ARG_OF_PERICENTER": "126.0046",
    "MEAN_ANOMALY": "234.7327",
    "EPHEMERIS_TYPE": "0",
    "ELEMENT_SET_NO": "999",
    "REV_AT_EPOCH": "217",
    "BSTAR": "0",
    "MEAN_MOTION_DOT": "0.02365339",
    "MEAN_MOTION_DDOT": "0.000000003714",
    "FILE": "33909",
    "TLE_LINE0": "0 FTV 1157",
    "TLE_LINE1": "1 00525U 63002  A 63021.40465330  .02365339 +37140-8 +00000-0 0  9994",
    "TLE_LINE2": "2 00525 082.1863 114.3740 0069924 126.0046 234.7327 16.23369720002178",
    "OBJECT_ID": "1963-002A",
    "OBJECT_NUMBER": "525",
    "SEMIMAJOR_AXIS": "6588.560",
    "PERIOD": "88.704",
    "APOGEE": "256.495",
    "PERIGEE": "164.355",
    "DECAYED": "1"
  },
  {
    "ORDINAL": "1",
    "COMMENT": "GENERATED VIA SPACETRACK.ORG API",
    "ORIGINATOR": "18 SPCS",
    "NORAD_CAT_ID": "526",
    "OBJECT_NAME": "FTV 1157 DEB",
    "OBJECT_TYPE": "DEBRIS",
    "CLASSIFICATION_TYPE": "U",
    "INTLDES": "63002B",
    "EPOCH": "1963-01-14 02:16:11",
    "EPOCH_MICROSECONDS": "814815",
    "MEAN_MOTION": "16.21333173",
    "ECCENTRICITY": "0.0054506",
    "INCLINATION": "82.2318",
    "RA_OF_ASC_NODE": "122.7763",
    "ARG_OF_PERICENTER": "158.6213",
    "MEAN_ANOMALY": "201.7175",
    "EPHEMERIS_TYPE": "0",
    "ELEMENT_SET_NO": "999",
    "REV_AT_EPOCH": "100",
    "BSTAR": "0",
    "MEAN_MOTION_DOT": "0.03375756",
    "MEAN_MOTION_DDOT": "0.015695",
    "FILE": "33909",
    "TLE_LINE0": "0 FTV 1157 DEB",
    "TLE_LINE1": "1 00526U 63002  B 63014.09458119  .03375756 +15695-1 +00000-0 0  9998",
    "TLE_LINE2": "2 00526 082.2318 122.7763 0054506 158.6213 201.7175 16.21333173001007",
    "OBJECT_ID": "1963-002B",
    "OBJECT_NUMBER": "526",
    "SEMIMAJOR_AXIS": "6594.076",
    "PERIOD": "88.816",
    "APOGEE": "251.883",
    "PERIGEE": "179.999",
    "DECAYED": "1"
  },
  {
    "ORDINAL": "1",
    "COMMENT": "GENERATED VIA SPACETRACK.ORG API",
    "ORIGINATOR": "18 SPCS",
    "NORAD_CAT_ID": "527",
    "OBJECT_NAME": "FTV 2313",
    "OBJECT_TYPE": "PAYLOAD",
    "CLASSIFICATION_TYPE": "U",
    "INTLDES": "63003A",
    "EPOCH": "1969-01-08 12:44:15",
    "EPOCH_MICROSECONDS": "391680",
    "MEAN_MOTION": "16.32827153",
    "ECCENTRICITY": "0",
    "INCLINATION": "81.8773",
    "RA_OF_ASC_NODE": "280.3308",
    "ARG_OF_PERICENTER": "0",
    "MEAN_ANOMALY": "0.117",
    "EPHEMERIS_TYPE": "0",
    "ELEMENT_SET_NO": "999",
    "REV_AT_EPOCH": "33454",
    "BSTAR": "0",
    "MEAN_MOTION_DOT": "0.03844437",
    "MEAN_MOTION_DDOT": "0",
    "FILE": "33933",
    "TLE_LINE0": "0 FTV 2313",
    "TLE_LINE1": "1 00527U 63003  A 69008.53073370  .03844437 +00000-0 +00000-0 0  9990",
    "TLE_LINE2": "2 00527 081.8773 280.3308 0000000 000.0000 000.1170 16.32827153334540",
    "OBJECT_ID": "1963-003A",
    "OBJECT_NUMBER": "527",
    "SEMIMAJOR_AXIS": "6563.094",
    "PERIOD": "88.191",
    "APOGEE": "184.959",
    "PERIGEE": "184.959",
    "DECAYED": "1"
  },
  {
    "ORDINAL": "1",
    "COMMENT": "GENERATED VIA SPACETRACK.ORG API",
    "ORIGINATOR": "18 SPCS",
    "NORAD_CAT_ID": "528",
    "OBJECT_NAME": "FTV 2313 DEB",
    "OBJECT_TYPE": "DEBRIS",
    "CLASSIFICATION_TYPE": "U",
    "INTLDES": "63003B",
    "EPOCH": "1963-10-27 14:40:16",
    "EPOCH_MICROSECONDS": "132512",
    "MEAN_MOTION": "15.7490146",
    "ECCENTRICITY": "0.0017147",
    "INCLINATION": "81.8615",
    "RA_OF_ASC_NODE": "198.5261",
    "ARG_OF_PERICENTER": "104.7477",
    "MEAN_ANOMALY": "255.4423",
    "EPHEMERIS_TYPE": "0",
    "ELEMENT_SET_NO": "999",
    "REV_AT_EPOCH": "4361",
    "BSTAR": "0",
    "MEAN_MOTION_DOT": "0.00686563",
    "MEAN_MOTION_DDOT": "0",
    "FILE": "33909",
    "TLE_LINE0": "0 FTV 2313 DEB",
    "TLE_LINE1": "1 00528U 63003  B 63300.61129783  .00686563 +00000-0 +00000-0 0  9990",
    "TLE_LINE2": "2 00528 081.8615 198.5261 0017147 104.7477 255.4423 15.74901460043614",
    "OBJECT_ID": "1963-003B",
    "OBJECT_NUMBER": "528",
    "SEMIMAJOR_AXIS": "6723.053",
    "PERIOD": "91.434",
    "APOGEE": "356.446",
    "PERIGEE": "333.390",
    "DECAYED": "1"
  }
]
